ONEWEB-0670             
1 55829U 23029AK  25359.89210090  .00000263  00000+0  67364-3 0  9997
2 55829  87.9003 324.2827 0002177  81.0592 279.0784 13.14503995136667
ONEWEB-0671             
1 55830U 23029AL  25359.89794138  .00000058  00000+0  11369-3 0  9995
2 55830  87.9206 339.4596 0001964  81.2013 278.9342 13.19726887136040
ONEWEB-0672             
1 55831U 23029AM  25359.91359440 -.00000036  00000+0 -12029-3 0  9994
2 55831  87.9216 308.9937 0001703  86.7679 273.3649 13.20770535138278
ONEWEB-0673             
1 55832U 23029AN  25360.02668083 -.00000022  00000+0 -87727-4 0  9998
2 55832  87.9220 339.4153 0001928  82.9434 277.1918 13.19726570136063
ONEWEB-0674             
1 55833U 23029AP  25359.63202184 -.00000178  00000+0 -51568-3 0  9995
2 55833  87.8996 324.3115 0002265  82.5186 277.6201 13.14500809136610
ONEWEB-0675             
1 55834U 23029AQ  25359.96587649  .00000074  00000+0  15328-3 0  9991
2 55834  87.9197 339.4533 0001509  87.3965 272.7341 13.19725227136073
ONEWEB-0720             
1 55835U 23029AR  25359.88215709  .00000039  00000+0  64413-4 0  9999
2 55835  87.9200 339.4681 0001862  73.5621 286.5716 13.19726022135983
ONEWEB-0537             
1 56046U 23043A   25360.14951413  .00000017  00000+0  10325-4 0  9999
2 56046  87.9047 263.2258 0001457  79.4445 280.6850 13.16592629136199
ONEWEB-0538             
1 56047U 23043B   25360.21916782  .00000046  00000+0  87976-4 0  9996
2 56047  87.9046 263.2158 0001391  66.5208 293.6069 13.16592340136218
ONEWEB-0546             
1 56048U 23043C   25360.13050910 -.00000003  00000+0 -42320-4 0  9999
2 56048  87.9061 263.2260 0001336 100.2473 259.8809 13.16592922136198
ONEWEB-0547             
1 56049U 23043D   25359.82843804  .00000000  00000+0 -32696-4 0  9997
2 56049  87.9227 278.5513 0001718  70.2670 289.8649 13.21826820135324
ONEWEB-0548             
1 56050U 23043E   25360.23104954  .00000047  00000+0  88252-4 0  9991
2 56050  87.9039 263.2112 0002065  78.8192 281.3171 13.16595263136205
ONEWEB-0549             
1 56051U 23043F   25360.19950994  .00000067  00000+0  13018-3 0  9999
2 56051  87.9227 278.4915 0001694  69.9132 290.2184 13.21826341135376
ONEWEB-0550             
1 56052U 23043G   25360.18634399 -.00000004  00000+0 -41821-4 0  9994
2 56052  87.9225 278.4887 0001766  79.0522 281.0810 13.21823702135370
ONEWEB-0551             
1 56053U 23043H   25360.27692630  .00000247  00000+0  62295-3 0  9991
2 56053  87.9008 293.7382 0001786  69.8490 290.2832 13.15547027133665
ONEWEB-0552             
1 56054U 23043J   25360.18139861  .00000143  00000+0  31534-3 0  9991
2 56054  87.9227 278.4985 0001891  68.2016 291.9319 13.21827731135370
ONEWEB-0553             
1 56055U 23043K   25360.21283655  .00000043  00000+0  80050-4 0  9994
2 56055  87.9052 263.2162 0001559  87.4015 272.7295 13.16592690136210
