[{"OBJECT_NAME":"ONEWEB-0670","OBJECT_ID":"2023-029AK","EPOCH":"2025-12-25T21:24:37.517760","MEAN_MOTION":13.14503995,"ECCENTRICITY":0.0002177,"INCLINATION":87.9003,"RA_OF_ASC_NODE":324.2827,"ARG_OF_PERICENTER":81.0592,"MEAN_ANOMALY":279.0784,"EPHEMERIS_TYPE":0,"CLASSIFICATION_TYPE":"U","NORAD_CAT_ID":55829,"ELEMENT_SET_NO":999,"REV_AT_EPOCH":13666,"BSTAR":0.00067364,"MEAN_MOTION_DOT":2.63e-6,"MEAN_MOTION_DDOT":0},{"OBJECT_NAME":"ONEWEB-0671","OBJECT_ID":"2023-029AL","EPOCH":"2025-12-25T21:33:02.135232","MEAN_MOTION":13.19726887,"ECCENTRICITY":0.0001964,"INCLINATION":87.9206,"RA_OF_ASC_NODE":339.4596,"ARG_OF_PERICENTER":81.2013,"MEAN_ANOMALY":278.9342,"EPHEMERIS_TYPE":0,"CLASSIFICATION_TYPE":"U","NORAD_CAT_ID":55830,"ELEMENT_SET_NO":999,"REV_AT_EPOCH":13604,"BSTAR":0.00011369,"MEAN_MOTION_DOT":5.8e-7,"MEAN_MOTION_DDOT":0},{"OBJECT_NAME":"ONEWEB-0672","OBJECT_ID":"2023-029AM","EPOCH":"2025-12-25T21:55:34.556160","MEAN_MOTION":13.20770535,"ECCENTRICITY":0.0001703,"INCLINATION":87.9216,"RA_OF_ASC_NODE":308.9937,"ARG_OF_PERICENTER":86.7679,"MEAN_ANOMALY":273.3649,"EPHEMERIS_TYPE":0,"CLASSIFICATION_TYPE":"U","NORAD_CAT_ID":55831,"ELEMENT_SET_NO":999,"REV_AT_EPOCH":13827,"BSTAR":-0.00012029,"MEAN_MOTION_DOT":-3.6e-7,"MEAN_MOTION_DDOT":0},{"OBJECT_NAME":"ONEWEB-0673","OBJECT_ID":"2023-029AN","EPOCH":"2025-12-26T00:38:25.223712","MEAN_MOTION":13.1972657,"ECCENTRICITY":0.00019284,"INCLINATION":87.922,"RA_OF_ASC_NODE":339.4153,"ARG_OF_PERICENTER":82.9434,"MEAN_ANOMALY":277.1918,"EPHEMERIS_TYPE":0,"CLASSIFICATION_TYPE":"U","NORAD_CAT_ID":55832,"ELEMENT_SET_NO":999,"REV_AT_EPOCH":13606,"BSTAR":-8.7726734e-5,"MEAN_MOTION_DOT":-2.2e-7,"MEAN_MOTION_DDOT":0},{"OBJECT_NAME":"ONEWEB-0674","OBJECT_ID":"2023-029AP","EPOCH":"2025-12-25T15:10:06.686976","MEAN_MOTION":13.14500809,"ECCENTRICITY":0.00022659,"INCLINATION":87.8996,"RA_OF_ASC_NODE":324.3115,"ARG_OF_PERICENTER":82.5186,"MEAN_ANOMALY":277.6201,"EPHEMERIS_TYPE":0,"CLASSIFICATION_TYPE":"U","NORAD_CAT_ID":55833,"ELEMENT_SET_NO":999,"REV_AT_EPOCH":13661,"BSTAR":-0.00051567982,"MEAN_MOTION_DOT":-1.78e-6,"MEAN_MOTION_DDOT":0},{"OBJECT_NAME":"ONEWEB-0675","OBJECT_ID":"2023-029AQ","EPOCH":"2025-12-25T23:10:51.728736","MEAN_MOTION":13.19725227,"ECCENTRICITY":0.0001509,"INCLINATION":87.9197,"RA_OF_ASC_NODE":339.4533,"ARG_OF_PERICENTER":87.3965,"MEAN_ANOMALY":272.7341,"EPHEMERIS_TYPE":0,"CLASSIFICATION_TYPE":"U","NORAD_CAT_ID":55834,"ELEMENT_SET_NO":999,"REV_AT_EPOCH":13607,"BSTAR":0.00015328,"MEAN_MOTION_DOT":7.4e-7,"MEAN_MOTION_DDOT":0},{"OBJECT_NAME":"ONEWEB-0720","OBJECT_ID":"2023-029AR","EPOCH":"2025-12-25T21:10:18.372576","MEAN_MOTION":13.19726022,"ECCENTRICITY":0.0001862,"INCLINATION":87.92,"RA_OF_ASC_NODE":339.4681,"ARG_OF_PERICENTER":73.5621,"MEAN_ANOMALY":286.5716,"EPHEMERIS_TYPE":0,"CLASSIFICATION_TYPE":"U","NORAD_CAT_ID":55835,"ELEMENT_SET_NO":999,"REV_AT_EPOCH":13598,"BSTAR":6.4413e-5,"MEAN_MOTION_DOT":3.9e-7,"MEAN_MOTION_DDOT":0},{"OBJECT_NAME":"ONEWEB-0537","OBJECT_ID":"2023-043A","EPOCH":"2025-12-26T03:35:18.020832","MEAN_MOTION":13.16592629,"ECCENTRICITY":0.00014573,"INCLINATION":87.9047,"RA_OF_ASC_NODE":263.2258,"ARG_OF_PERICENTER":79.4445,"MEAN_ANOMALY":280.685,"EPHEMERIS_TYPE":0,"CLASSIFICATION_TYPE":"U","NORAD_CAT_ID":56046,"ELEMENT_SET_NO":999,"REV_AT_EPOCH":13619,"BSTAR":1.0325389e-5,"MEAN_MOTION_DOT":1.7e-7,"MEAN_MOTION_DDOT":0},{"OBJECT_NAME":"ONEWEB-0538","OBJECT_ID":"2023-043B","EPOCH":"2025-12-26T05:15:36.099648","MEAN_MOTION":13.1659234,"ECCENTRICITY":0.00013915,"INCLINATION":87.9046,"RA_OF_ASC_NODE":263.2158,"ARG_OF_PERICENTER":66.5208,"MEAN_ANOMALY":293.6069,"EPHEMERIS_TYPE":0,"CLASSIFICATION_TYPE":"U","NORAD_CAT_ID":56047,"ELEMENT_SET_NO":999,"REV_AT_EPOCH":13621,"BSTAR":8.7975606e-5,"MEAN_MOTION_DOT":4.6e-7,"MEAN_MOTION_DDOT":0},{"OBJECT_NAME":"ONEWEB-0546","OBJECT_ID":"2023-043C","EPOCH":"2025-12-26T03:07:55.986240","MEAN_MOTION":13.16592922,"ECCENTRICITY":0.00013369,"INCLINATION":87.9061,"RA_OF_ASC_NODE":263.226,"ARG_OF_PERICENTER":100.2473,"MEAN_ANOMALY":259.8809,"EPHEMERIS_TYPE":0,"CLASSIFICATION_TYPE":"U","NORAD_CAT_ID":56048,"ELEMENT_SET_NO":999,"REV_AT_EPOCH":13619,"BSTAR":-4.2320333e-5,"MEAN_MOTION_DOT":-3.0e-8,"MEAN_MOTION_DDOT":0},{"OBJECT_NAME":"ONEWEB-0547","OBJECT_ID":"2023-043D","EPOCH":"2025-12-25T19:52:57.046656","MEAN_MOTION":13.2182682,"ECCENTRICITY":0.00017187,"INCLINATION":87.9227,"RA_OF_ASC_NODE":278.5513,"ARG_OF_PERICENTER":70.267,"MEAN_ANOMALY":289.8649,"EPHEMERIS_TYPE":0,"CLASSIFICATION_TYPE":"U","NORAD_CAT_ID":56049,"ELEMENT_SET_NO":999,"REV_AT_EPOCH":13532,"BSTAR":-3.2696156e-5,"MEAN_MOTION_DOT":0,"MEAN_MOTION_DDOT":0},{"OBJECT_NAME":"ONEWEB-0548","OBJECT_ID":"2023-043E","EPOCH":"2025-12-26T05:32:42.680256","MEAN_MOTION":13.16595263,"ECCENTRICITY":0.00020651,"INCLINATION":87.9039,"RA_OF_ASC_NODE":263.2112,"ARG_OF_PERICENTER":78.8192,"MEAN_ANOMALY":281.3171,"EPHEMERIS_TYPE":0,"CLASSIFICATION_TYPE":"U","NORAD_CAT_ID":56050,"ELEMENT_SET_NO":999,"REV_AT_EPOCH":13620,"BSTAR":8.8252152e-5,"MEAN_MOTION_DOT":4.7e-7,"MEAN_MOTION_DDOT":0},{"OBJECT_NAME":"ONEWEB-0549","OBJECT_ID":"2023-043F","EPOCH":"2025-12-26T04:47:17.658816","MEAN_MOTION":13.21826341,"ECCENTRICITY":0.00016946,"INCLINATION":87.9227,"RA_OF_ASC_NODE":278.4915,"ARG_OF_PERICENTER":69.9132,"MEAN_ANOMALY":290.2184,"EPHEMERIS_TYPE":0,"CLASSIFICATION_TYPE":"U","NORAD_CAT_ID":56051,"ELEMENT_SET_NO":999,"REV_AT_EPOCH":13537,"BSTAR":0.00013017707,"MEAN_MOTION_DOT":6.7e-7,"MEAN_MOTION_DDOT":0},{"OBJECT_NAME":"ONEWEB-0550","OBJECT_ID":"2023-043G","EPOCH":"2025-12-26T04:28:20.120736","MEAN_MOTION":13.21823702,"ECCENTRICITY":0.0001766,"INCLINATION":87.9225,"RA_OF_ASC_NODE":278.4887,"ARG_OF_PERICENTER":79.0522,"MEAN_ANOMALY":281.081,"EPHEMERIS_TYPE":0,"CLASSIFICATION_TYPE":"U","NORAD_CAT_ID":56052,"ELEMENT_SET_NO":999,"REV_AT_EPOCH":13537,"BSTAR":-4.1820629e-5,"MEAN_MOTION_DOT":-4.0e-8,"MEAN_MOTION_DDOT":0},{"OBJECT_NAME":"ONEWEB-0551","OBJECT_ID":"2023-043H","EPOCH":"2025-12-26T06:38:46.432320","MEAN_MOTION":13.15547027,"ECCENTRICITY":0.00017867,"INCLINATION":87.9008,"RA_OF_ASC_NODE":293.7382,"ARG_OF_PERICENTER":69.849,"MEAN_ANOMALY":290.2832,"EPHEMERIS_TYPE":0,"CLASSIFICATION_TYPE":"U","NORAD_CAT_ID":56053,"ELEMENT_SET_NO":999,"REV_AT_EPOCH":13366,"BSTAR":0.00062295114,"MEAN_MOTION_DOT":2.47e-6,"MEAN_MOTION_DDOT":0},{"OBJECT_NAME":"ONEWEB-0552","OBJECT_ID":"2023-043J","EPOCH":"2025-12-26T04:21:12.839904","MEAN_MOTION":13.21827731,"ECCENTRICITY":0.00018912,"INCLINATION":87.9227,"RA_OF_ASC_NODE":278.4985,"ARG_OF_PERICENTER":68.2016,"MEAN_ANOMALY":291.9319,"EPHEMERIS_TYPE":0,"CLASSIFICATION_TYPE":"U","NORAD_CAT_ID":56054,"ELEMENT_SET_NO":999,"REV_AT_EPOCH":13537,"BSTAR":0.00031534449,"MEAN_MOTION_DOT":1.43e-6,"MEAN_MOTION_DDOT":0},{"OBJECT_NAME":"ONEWEB-0553","OBJECT_ID":"2023-043K","EPOCH":"2025-12-26T05:06:29.077920","MEAN_MOTION":13.1659269,"ECCENTRICITY":0.00015597,"INCLINATION":87.9052,"RA_OF_ASC_NODE":263.2162,"ARG_OF_PERICENTER":87.4015,"MEAN_ANOMALY":272.7295,"EPHEMERIS_TYPE":0,"CLASSIFICATION_TYPE":"U","NORAD_CAT_ID":56055,"ELEMENT_SET_NO":999,"REV_AT_EPOCH":13621,"BSTAR":8.0049673e-5,"MEAN_MOTION_DOT":4.3e-7,"MEAN_MOTION_DDOT":0}]
